FENGYUN 1C DEB          
1 30974U 99025BBQ 17345.36719476  .00002192  00000-0  47751-3 0  9992
2 30974  98.9430 194.1304 0059553 148.1744 212.3073 14.57999636561487
